ONEWEB-0055             
1 45443U 20020V   21011.58334491  .00022515  00000-0  63340-1 0  9998
2 45443  87.8841  55.2112 0001824  99.6725 117.8079 13.11414391 42767
ONEWEB-0093             
1 45444U 20020W   21011.58334491  .00022914  00000-0  63224-1 0  9993
2 45444  87.8829  55.2566 0013045  33.0543  10.3054 13.12712943 42838
ONEWEB-0029             
1 45445U 20020X   21011.58334491  .00022374  00000-0  62940-1 0  9998
2 45445  87.8859  55.2372 0001816  95.2172 129.5302 13.11417970 42816
ONEWEB-0068             
1 45446U 20020Y   21011.58334491  .00023301  00000-0  65552-1 0  9992
2 45446  87.8857  55.2558 0001358 115.2993 315.2489 13.11408258 42758
ONEWEB-0046             
1 45447U 20020Z   21011.58334491  .00023523  00000-0  66174-1 0  9990
2 45447  87.8861  55.2581 0001575  92.2608 352.9105 13.11410726 42765
ONEWEB-0063             
1 45448U 20020AA  21011.25001157 -.00044740  00000-0 -12624+0 0  9990
2 45448  87.8862  55.3464 0001641  86.5586  18.1575 13.11767134 42796
ONEWEB-0019             
1 45449U 20020AB  21011.25001157 -.00291520  00000-0 -84759+0 0  9999
2 45449  87.8885  55.2927 0001919  89.6719 202.0967 13.11515920 42653
ONEWEB-0094             
1 45450U 20020AC  21011.58334491  .00011245  00000-0  11410-2 0  9996
2 45450  87.5760  45.8183 0025056 315.3752 303.8464 14.90541718 44181
ONEWEB-0087             
1 45451U 20020AD  21011.58334491  .00022748  00000-0  64006-1 0  9995
2 45451  87.8881  55.2541 0001692  94.2359 115.8180 13.11400402 42740
ONEWEB-0082             
1 45452U 20020AE  21011.00001157  .00045668  00000-0  12823+0 0  9997
2 45452  87.8859  55.3497 0001621 104.4224 226.0388 13.11392501  1733
ONEWEB-0050             
1 45453U 20020AF  21011.58334491  .00005402  00000-0  49114-3 0  9990
2 45453  87.5407  44.8287 0023925 311.2053  59.2704 14.94841380 44314
ONEWEB-0034             
1 45454U 20020AG  21011.58334491  .00023789  00000-0  66920-1 0  9991
2 45454  87.8867  55.2509 0001504  86.0492  58.0820 13.11410809 42741
ONEWEB-0060             
1 45455U 20020AH  21011.58334491  .00023775  00000-0  66879-1 0  9990
2 45455  87.8867  55.2408 0001656  93.7253  20.8802 13.11412323 42704
ONEWEB-0086             
1 45456U 20020AJ  21011.58334491  .00000013  00000-0  00000+0 0  9993
2 45456  87.8875  55.2405 0001546  92.4421 315.7176 13.11937147 42753
ONEWEB-0088             
1 45457U 20020AK  21011.58334491  .00012193  00000-0  34323-1 0  9993
2 45457  87.8864  55.2778 0001504  88.8032  48.0302 13.11416745 42692
ONEWEB-0102             
1 47258U 20100A   21011.48408224 -.00379510  00000-0 -11169-1 0  9992
2 47258  87.4128  31.1562 0004962 163.9400 196.2012 15.36636014  3694
ONEWEB-0109             
1 47259U 20100B   21011.50002315 -.01326845  00000-0 -87233-1 0  9996
2 47259  87.3972  31.2325 0007589 175.9942 329.4472 15.10577911  3671
ONEWEB-0110             
1 47260U 20100C   21011.50002315 -.01386849  00000-0 -46266-1 0  9999
2 47260  87.4223  31.1434 0007241 178.6196 260.4881 15.34087100  3691
ONEWEB-0111             
1 47261U 20100D   21011.50002315 -.01343304  00000-0 -87638-1 0  9997
2 47261  87.4075  31.2418 0007551 180.7219 347.3863 15.10892256  3677
ONEWEB-0114             
1 47262U 20100E   21011.47726819 -.00361339  00000-0 -21102-1 0  9997
2 47262  87.3962  31.2487 0009302 171.7757 188.3638 15.13700692  3679
ONEWEB-0117             
1 47263U 20100F   21011.50002315 -.01330694  00000-0 -80464-1 0  9997
2 47263  87.4124  31.2225 0009877 189.3650  97.8109 15.14060239  3679
ONEWEB-0118             
1 47264U 20100G   21011.50002315 -.01371352  00000-0 -41323-1 0  9995
2 47264  87.4189  31.1249 0011412 176.5843 357.8985 15.37156638  3693
ONEWEB-0119             
1 47265U 20100H   21011.50002315 -.01385372  00000-0 -47295-1 0  9997
2 47265  87.4119  31.1526 0011388 175.2701 145.9146 15.33293084  3683
ONEWEB-0120             
1 47266U 20100J   21011.48164159 -.00406098  00000-0 -11917-1 0  9990
2 47266  87.4065  31.1470 0009967 170.6604 189.4837 15.36775988  3695
ONEWEB-0121             
1 47267U 20100K   21011.16668981 -.01582428  00000-0 -91763-1 0  9998
2 47267  87.4238  31.3419 0011076 188.4950 116.2758 15.15553641  3628
ONEWEB-0122             
1 47268U 20100L   21011.50002315 -.01329265  00000-0 -89581-1 0  9993
2 47268  87.4018  31.2532 0007729 172.8640 302.8539 15.09686118  3677
ONEWEB-0123             
1 47269U 20100M   21011.49096721 -.00389359  00000-0 -12169-1 0  9993
2 47269  87.4220  31.1544 0005044 184.2828 175.8382 15.34796348  3699
ONEWEB-0124             
1 47270U 20100N   21011.50002315 -.01396407  00000-0 -72269-1 0  9993
2 47270  87.4270  31.1947 0008939 162.0716   8.1541 15.19658899  3673
ONEWEB-0125             
1 47271U 20100P   21011.48566264 -.00435397  00000-0 -16359-1 0  9998
2 47271  87.4027  31.1964 0011398 174.6137 185.5237 15.29023855  3673
ONEWEB-0126             
1 47272U 20100Q   21011.50002315 -.01377184  00000-0 -44463-1 0  9991
2 47272  87.4079  31.1550 0009469 163.8991 212.3752 15.35060802  3688
ONEWEB-0127             
1 47273U 20100R   21011.47150180 -.00466259  00000-0 -13180-1 0  9995
2 47273  87.4045  31.1446 0013306 183.6222 176.4938 15.38111718  3680
ONEWEB-0128             
1 47274U 20100S   21011.50002315 -.01367738  00000-0 -37849-1 0  9997
2 47274  87.4042  31.1179 0012622 156.5036 105.7404 15.40220381  3686
ONEWEB-0129             
1 47275U 20100T   21011.50002315 -.01400002  00000-0 -57768-1 0  9992
2 47275  87.4039  31.1922 0010277 186.7772 264.3341 15.27244335  3676
ONEWEB-0130             
1 47276U 20100U   21011.50002315 -.01384360  00000-0 -51854-1 0  9991
2 47276  87.4291  31.1627 0008039 162.9258 205.1230 15.30386060  3684
ONEWEB-0131             
1 47277U 20100V   21011.48918512 -.00434033  00000-0 -13248-1 0  9991
2 47277  87.4167  31.1504 0005932 166.9085 193.2323 15.35709634  3683
ONEWEB-0132             
1 47278U 20100W   21011.50002315 -.01376623  00000-0 -68731-1 0  9998
2 47278  87.4059  31.2218 0007931 185.7181  87.8572 15.20852376  3662
ONEWEB-0133             
1 47279U 20100X   21010.91667824 -.01203488  00000-0 -33874-1 0  9993
2 47279  87.4133  31.3386 0011789 177.4740  20.6826 15.39327382  1779
ONEWEB-0134             
1 47280U 20100Y   21011.47534179 -.00349467  00000-0 -98242-2 0  9991
2 47280  87.4105  31.1351 0015283 186.0102 174.0972 15.37794729  3680
ONEWEB-0135             
1 47281U 20100Z   21011.51980592 -.00277843  00000-0 -70161-2 0  9999
2 47281  87.4017  31.1068 0013642 161.7347 198.4402 15.40822806  3697
ONEWEB-0136             
1 47282U 20100AA  21011.49651338 -.00430822  00000-0 -14164-1 0  9998
2 47282  87.4154  31.1523 0007633 161.1267 199.0269 15.33341943  3681
ONEWEB-0137             
1 47283U 20100AB  21011.50002315 -.01336187  00000-0 -74202-1 0  9995
2 47283  87.4341  31.2162 0010043 166.3161 267.3286 15.17059631  3678
ONEWEB-0138             
1 47284U 20100AC  21011.50002315 -.01363866  00000-0 -77320-1 0  9994
2 47284  87.3869  31.2030 0011103 180.2117 203.0301 15.16392080  3673
ONEWEB-0139             
1 47285U 20100AD  21011.50002315 -.01382539  00000-0 -41443-1 0  9990
2 47285  87.4133  31.1279 0012653 160.7458  68.8808 15.37317780  3682
ONEWEB-0140             
1 47286U 20100AE  21011.48539982 -.00330609  00000-0 -12433-1 0  9990
2 47286  87.4001  31.2004 0007143 179.4410 180.6849 15.28603362  3656
ONEWEB-0141             
1 47287U 20100AF  21011.47763794 -.00169999  00000-0 -66271-2 0  9992
2 47287  87.4109  31.2067 0012619 168.7162 191.4372 15.26671380  3669
ONEWEB-0142             
1 47288U 20100AG  21011.49313295 -.00426093  00000-0 -13674-1 0  9991
2 47288  87.4191  31.1628 0007417 162.6554 197.4953 15.34089408  3676
ONEWEB-0143             
1 47289U 20100AH  21011.50002315 -.01385299  00000-0 -63667-1 0  9992
2 47289  87.4022  31.2107 0009878 189.5761 206.2746 15.23643409  3678
ONEWEB-0144             
1 47290U 20100AJ  21011.50002315 -.01386486  00000-0 -65449-1 0  9993
2 47290  87.4005  31.2198 0008321 187.9238 135.3849 15.22770177  3650
ONEWEB-0145             
1 47291U 20100AK  21011.16668981 -.01412613  00000-0 -39480-1 0  9991
2 47291  87.4091  31.2383 0012557 163.8383  18.3716 15.39520654  3623
ONEWEB-0146             
1 47292U 20100AL  21011.16668981 -.01436906  00000-0 -55973-1 0  9998
2 47292  87.4274  31.2950 0011553 178.4814  55.2987 15.29183416  3612
ONEWEB-0147             
1 47293U 20100AM  21011.16668981 -.01470236  00000-0 -67655-1 0  9993
2 47293  87.3941  31.2957 0010138 164.8524   8.1981 15.23798613  3611
